OBJECT_NAME,OBJECT_ID,EPOCH,MEAN_MOTION,ECCENTRICITY,INCLINATION,RA_OF_ASC_NODE,ARG_OF_PERICENTER,MEAN_ANOMALY,EPHEMERIS_TYPE,CLASSIFICATION_TYPE,NORAD_CAT_ID,ELEMENT_SET_NO,REV_AT_EPOCH,BSTAR,MEAN_MOTION_DOT,MEAN_MOTION_DDOT
INNOSAT 3 (RS92S0),2025-155U,2026-06-18T22:23:29.323392,15.43929438,.00068074,97.4489,141.4707,146.9853,213.1821,0,U,64894,999,8123,.67563157E-3,.30736E-3,0
KNACKSAT-2,1998-067XZ,2026-06-17T14:33:42.297120,15.60014370,.0009088,51.6314,292.3670,217.1010,142.9356,0,U,67683,999,2034,.49993E-3,.40994E-3,0
