INNOSAT 3 (RS92S0)      
1 64894U 25155U   26169.93297828  .00030736  00000+0  67563-3 0  9999
2 64894  97.4489 141.4707 0006807 146.9853 213.1821 15.43929438 81235
KNACKSAT-2              
1 67683U 98067XZ  26168.60673955  .00040994  00000+0  49993-3 0  9996
2 67683  51.6314 292.3670 0009088 217.1010 142.9356 15.60014370 20344
